IRIDIUM 106             
1 41917U 17003A   25362.93007296 -.00000020  00000+0 -14227-4 0  9990
2 41917  86.3999 159.6946 0002348  92.6856 267.4609 14.34217269468800
IRIDIUM 103             
1 41918U 17003B   25362.91738629  .00000352  00000+0  11858-3 0  9992
2 41918  86.3997 159.6003 0001987 107.9187 252.2226 14.34218978468825
IRIDIUM 109             
1 41919U 17003C   25362.92372912  .00000143  00000+0  44131-4 0  9992
2 41919  86.4000 159.6543 0001998  95.6343 264.5080 14.34218244468796
IRIDIUM 102             
1 41920U 17003D   25362.89201591  .00000141  00000+0  43211-4 0  9990
2 41920  86.3996 159.5947 0001945  90.9003 269.2416 14.34217755468871
IRIDIUM 105             
1 41921U 17003E   25362.86275485  .00000493  00000+0  16911-3 0  9997
2 41921  86.3991 128.0979 0002003  97.4267 262.7157 14.34220786470728
IRIDIUM 104             
1 41922U 17003F   25362.90470043  .00000015  00000+0 -18116-5 0  9992
2 41922  86.4003 159.6296 0001584  99.8003 260.3372 14.34217597468864
IRIDIUM 114             
1 41923U 17003G   25362.70173807  .00000456  00000+0  15571-3 0  9997
2 41923  86.3997 159.6978 0001882  96.2002 263.9409 14.34217641468819
IRIDIUM 108             
1 41924U 17003H   25362.86956575 -.00000034  00000+0 -19160-4 0  9999
2 41924  86.3986 127.9839 0001937  90.9163 269.2255 14.34217230470693
